[{"OBJECT_NAME":"STARLINK-36595","OBJECT_ID":"2026-020Y","EPOCH":"2026-03-09T22:00:01.999584","MEAN_MOTION":15.68201858,"ECCENTRICITY":0.00012094,"INCLINATION":42.999,"RA_OF_ASC_NODE":140.3235,"ARG_OF_PERICENTER":283.6105,"MEAN_ANOMALY":204.2626,"EPHEMERIS_TYPE":0,"CLASSIFICATION_TYPE":"U","NORAD_CAT_ID":67639,"ELEMENT_SET_NO":999,"REV_AT_EPOCH":599,"BSTAR":-0.019427213,"MEAN_MOTION_DOT":-0.01971633,"MEAN_MOTION_DDOT":0},{"OBJECT_NAME":"OBJECT D","OBJECT_ID":"2018-102D","EPOCH":"2026-03-09T22:35:58.191072","MEAN_MOTION":15.561578,"ECCENTRICITY":0.00052317,"INCLINATION":97.3476,"RA_OF_ASC_NODE":154.4675,"ARG_OF_PERICENTER":78.3791,"MEAN_ANOMALY":281.8051,"EPHEMERIS_TYPE":0,"CLASSIFICATION_TYPE":"U","NORAD_CAT_ID":43834,"ELEMENT_SET_NO":999,"REV_AT_EPOCH":40176,"BSTAR":0.00069598095,"MEAN_MOTION_DOT":0.00048828,"MEAN_MOTION_DDOT":0}]
